CCSDS_OMM_VERS = 2.0
CREATION_DATE  = 
ORIGINATOR     = 

OBJECT_NAME    = GUOWANG GROUP 20 OBJECT H
OBJECT_ID      = 2026-047H
CENTER_NAME    = EARTH
REF_FRAME      = TEME
TIME_SYSTEM    = UTC
MEAN_ELEMENT_THEORY = SGP/SGP4

EPOCH          = 2026-04-02T11:48:51.915456
MEAN_MOTION    = 13.87381469
ECCENTRICITY   = .00009093
INCLINATION    = 50.0086
RA_OF_ASC_NODE = 334.0113
ARG_OF_PERICENTER = 305.9014
MEAN_ANOMALY   = 54.1799

EPHEMERIS_TYPE = 0
CLASSIFICATION_TYPE = U
NORAD_CAT_ID   = 68136
ELEMENT_SET_NO = 999
REV_AT_EPOCH   = 289
BSTAR          = .48250788E-4
MEAN_MOTION_DOT = -.88E-6
MEAN_MOTION_DDOT = 0

CCSDS_OMM_VERS = 2.0
CREATION_DATE  = 
ORIGINATOR     = 

OBJECT_NAME    = GUOWANG GROUP 20 OBJECT J
OBJECT_ID      = 2026-047J
CENTER_NAME    = EARTH
REF_FRAME      = TEME
TIME_SYSTEM    = UTC
MEAN_ELEMENT_THEORY = SGP/SGP4

EPOCH          = 2026-04-02T16:56:00.731328
MEAN_MOTION    = 13.87066479
ECCENTRICITY   = .00006698
INCLINATION    = 50.0058
RA_OF_ASC_NODE = 333.1317
ARG_OF_PERICENTER = 182.6269
MEAN_ANOMALY   = 177.4625

EPHEMERIS_TYPE = 0
CLASSIFICATION_TYPE = U
NORAD_CAT_ID   = 68137
ELEMENT_SET_NO = 999
REV_AT_EPOCH   = 293
BSTAR          = .24623265E-4
MEAN_MOTION_DOT = -.116E-5
MEAN_MOTION_DDOT = 0

CCSDS_OMM_VERS = 2.0
CREATION_DATE  = 
ORIGINATOR     = 

OBJECT_NAME    = CZ-8A R/B
OBJECT_ID      = 2026-047K
CENTER_NAME    = EARTH
REF_FRAME      = TEME
TIME_SYSTEM    = UTC
MEAN_ELEMENT_THEORY = SGP/SGP4

EPOCH          = 2026-04-03T21:04:05.032992
MEAN_MOTION    = 14.12233179
ECCENTRICITY   = .0044766
INCLINATION    = 49.9533
RA_OF_ASC_NODE = 326.5212
ARG_OF_PERICENTER = 224.7555
MEAN_ANOMALY   = 134.9736

EPHEMERIS_TYPE = 0
CLASSIFICATION_TYPE = U
NORAD_CAT_ID   = 68138
ELEMENT_SET_NO = 999
REV_AT_EPOCH   = 311
BSTAR          = .11708E-3
MEAN_MOTION_DOT = .64E-6
MEAN_MOTION_DDOT = 0

CCSDS_OMM_VERS = 2.0
CREATION_DATE  = 
ORIGINATOR     = 

OBJECT_NAME    = SHIYAN-30 03
OBJECT_ID      = 2026-048A
CENTER_NAME    = EARTH
REF_FRAME      = TEME
TIME_SYSTEM    = UTC
MEAN_ELEMENT_THEORY = SGP/SGP4

EPOCH          = 2026-04-03T17:41:02.665824
MEAN_MOTION    = 14.91771069
ECCENTRICITY   = .00025
INCLINATION    = 35.0015
RA_OF_ASC_NODE = 353.9636
ARG_OF_PERICENTER = 57.0069
MEAN_ANOMALY   = 303.0876

EPHEMERIS_TYPE = 0
CLASSIFICATION_TYPE = U
NORAD_CAT_ID   = 68139
ELEMENT_SET_NO = 999
REV_AT_EPOCH   = 324
BSTAR          = .47325E-3
MEAN_MOTION_DOT = .4836E-4
MEAN_MOTION_DDOT = 0

CCSDS_OMM_VERS = 2.0
CREATION_DATE  = 
ORIGINATOR     = 

OBJECT_NAME    = SHIYAN-30 04
OBJECT_ID      = 2026-048B
CENTER_NAME    = EARTH
REF_FRAME      = TEME
TIME_SYSTEM    = UTC
MEAN_ELEMENT_THEORY = SGP/SGP4

EPOCH          = 2026-04-03T17:42:02.642976
MEAN_MOTION    = 14.91768933
ECCENTRICITY   = .0000965
INCLINATION    = 34.9930
RA_OF_ASC_NODE = 353.9615
ARG_OF_PERICENTER = 60.9473
MEAN_ANOMALY   = 299.1328

EPHEMERIS_TYPE = 0
CLASSIFICATION_TYPE = U
NORAD_CAT_ID   = 68140
ELEMENT_SET_NO = 999
REV_AT_EPOCH   = 324
BSTAR          = .45525E-3
MEAN_MOTION_DOT = .465E-4
MEAN_MOTION_DDOT = 0

CCSDS_OMM_VERS = 2.0
CREATION_DATE  = 
ORIGINATOR     = 

OBJECT_NAME    = CZ-2D R/B
OBJECT_ID      = 2026-048C
CENTER_NAME    = EARTH
REF_FRAME      = TEME
TIME_SYSTEM    = UTC
MEAN_ELEMENT_THEORY = SGP/SGP4

EPOCH          = 2026-04-03T21:13:24.232800
MEAN_MOTION    = 14.95592809
ECCENTRICITY   = .0015769
INCLINATION    = 35.1309
RA_OF_ASC_NODE = 352.7065
ARG_OF_PERICENTER = 187.7640
MEAN_ANOMALY   = 172.2825

EPHEMERIS_TYPE = 0
CLASSIFICATION_TYPE = U
NORAD_CAT_ID   = 68141
ELEMENT_SET_NO = 999
REV_AT_EPOCH   = 327
BSTAR          = .25858E-3
MEAN_MOTION_DOT = .2902E-4
MEAN_MOTION_DDOT = 0

CCSDS_OMM_VERS = 2.0
CREATION_DATE  = 
ORIGINATOR     = 

OBJECT_NAME    = STARLINK-36604
OBJECT_ID      = 2026-049A
CENTER_NAME    = EARTH
REF_FRAME      = TEME
TIME_SYSTEM    = UTC
MEAN_ELEMENT_THEORY = SGP/SGP4

EPOCH          = 2026-04-03T20:00:01.999008
MEAN_MOTION    = 15.75173186
ECCENTRICITY   = .0001749
INCLINATION    = 97.2847
RA_OF_ASC_NODE = 114.3348
ARG_OF_PERICENTER = 88.8009
MEAN_ANOMALY   = 44.4494

EPHEMERIS_TYPE = 0
CLASSIFICATION_TYPE = U
NORAD_CAT_ID   = 68142
ELEMENT_SET_NO = 999
REV_AT_EPOCH   = 467
BSTAR          = .55431E-3
MEAN_MOTION_DOT = .83302E-3
MEAN_MOTION_DDOT = 0

CCSDS_OMM_VERS = 2.0
CREATION_DATE  = 
ORIGINATOR     = 

OBJECT_NAME    = STARLINK-36995
OBJECT_ID      = 2026-049B
CENTER_NAME    = EARTH
REF_FRAME      = TEME
TIME_SYSTEM    = UTC
MEAN_ELEMENT_THEORY = SGP/SGP4

EPOCH          = 2026-04-03T20:00:01.999008
MEAN_MOTION    = 15.75222753
ECCENTRICITY   = .0001379
INCLINATION    = 97.2852
RA_OF_ASC_NODE = 114.3453
ARG_OF_PERICENTER = 99.5324
MEAN_ANOMALY   = 59.7487

EPHEMERIS_TYPE = 0
CLASSIFICATION_TYPE = U
NORAD_CAT_ID   = 68143
ELEMENT_SET_NO = 999
REV_AT_EPOCH   = 466
BSTAR          = -.15146E-3
MEAN_MOTION_DOT = -.22692E-3
MEAN_MOTION_DDOT = 0

CCSDS_OMM_VERS = 2.0
CREATION_DATE  = 
ORIGINATOR     = 

OBJECT_NAME    = STARLINK-37020
OBJECT_ID      = 2026-049C
CENTER_NAME    = EARTH
REF_FRAME      = TEME
TIME_SYSTEM    = UTC
MEAN_ELEMENT_THEORY = SGP/SGP4

EPOCH          = 2026-04-03T14:00:03.000384
MEAN_MOTION    = 15.77205468
ECCENTRICITY   = .00016304
INCLINATION    = 97.2857
RA_OF_ASC_NODE = 114.1059
ARG_OF_PERICENTER = 90.4670
MEAN_ANOMALY   = 144.5127

EPHEMERIS_TYPE = 0
CLASSIFICATION_TYPE = U
NORAD_CAT_ID   = 68144
ELEMENT_SET_NO = 999
REV_AT_EPOCH   = 462
BSTAR          = -.13479979E-1
MEAN_MOTION_DOT = -.1913338E-1
MEAN_MOTION_DDOT = 0

CCSDS_OMM_VERS = 2.0
CREATION_DATE  = 
ORIGINATOR     = 

OBJECT_NAME    = STARLINK-36244
OBJECT_ID      = 2026-049D
CENTER_NAME    = EARTH
REF_FRAME      = TEME
TIME_SYSTEM    = UTC
MEAN_ELEMENT_THEORY = SGP/SGP4

EPOCH          = 2026-04-03T19:39:24.706944
MEAN_MOTION    = 15.75214906
ECCENTRICITY   = .0001576
INCLINATION    = 97.2845
RA_OF_ASC_NODE = 114.2964
ARG_OF_PERICENTER = 105.8081
MEAN_ANOMALY   = 254.3359

EPHEMERIS_TYPE = 0
CLASSIFICATION_TYPE = U
NORAD_CAT_ID   = 68145
ELEMENT_SET_NO = 999
REV_AT_EPOCH   = 337
BSTAR          = .14879E-2
MEAN_MOTION_DOT = .228069E-2
MEAN_MOTION_DDOT = 0

CCSDS_OMM_VERS = 2.0
CREATION_DATE  = 
ORIGINATOR     = 

OBJECT_NAME    = STARLINK-36980
OBJECT_ID      = 2026-049E
CENTER_NAME    = EARTH
REF_FRAME      = TEME
TIME_SYSTEM    = UTC
MEAN_ELEMENT_THEORY = SGP/SGP4

EPOCH          = 2026-04-03T19:02:41.155296
MEAN_MOTION    = 15.80920327
ECCENTRICITY   = .0001255
INCLINATION    = 97.2853
RA_OF_ASC_NODE = 114.3324
ARG_OF_PERICENTER = 109.8752
MEAN_ANOMALY   = 250.2651

EPHEMERIS_TYPE = 0
CLASSIFICATION_TYPE = U
NORAD_CAT_ID   = 68146
ELEMENT_SET_NO = 999
REV_AT_EPOCH   = 337
BSTAR          = .19094E-2
MEAN_MOTION_DOT = .383993E-2
MEAN_MOTION_DDOT = 0

CCSDS_OMM_VERS = 2.0
CREATION_DATE  = 
ORIGINATOR     = 

OBJECT_NAME    = STARLINK-37055
OBJECT_ID      = 2026-049F
CENTER_NAME    = EARTH
REF_FRAME      = TEME
TIME_SYSTEM    = UTC
MEAN_ELEMENT_THEORY = SGP/SGP4

EPOCH          = 2026-04-03T19:04:51.436992
MEAN_MOTION    = 15.80794142
ECCENTRICITY   = .0001201
INCLINATION    = 97.2857
RA_OF_ASC_NODE = 114.3301
ARG_OF_PERICENTER = 61.2246
MEAN_ANOMALY   = 298.9143

EPHEMERIS_TYPE = 0
CLASSIFICATION_TYPE = U
NORAD_CAT_ID   = 68147
ELEMENT_SET_NO = 999
REV_AT_EPOCH   = 337
BSTAR          = .53565E-3
MEAN_MOTION_DOT = .103583E-2
MEAN_MOTION_DDOT = 0

